[{"OBJECT_NAME":"STARLINK-32410","OBJECT_ID":"2024-204P","EPOCH":"2026-03-09T09:33:07.264800","MEAN_MOTION":15.30199223,"ECCENTRICITY":0.00011316,"INCLINATION":53.16,"RA_OF_ASC_NODE":128.3831,"ARG_OF_PERICENTER":68.5581,"MEAN_ANOMALY":291.554,"EPHEMERIS_TYPE":0,"CLASSIFICATION_TYPE":"U","NORAD_CAT_ID":61887,"ELEMENT_SET_NO":999,"REV_AT_EPOCH":7505,"BSTAR":-7.7259511e-5,"MEAN_MOTION_DOT":-2.646e-5,"MEAN_MOTION_DDOT":0},{"OBJECT_NAME":"NUSHSAT1","OBJECT_ID":"2025-052B","EPOCH":"2026-03-09T15:31:41.225952","MEAN_MOTION":15.31903202,"ECCENTRICITY":0.0005501,"INCLINATION":97.4095,"RA_OF_ASC_NODE":325.7239,"ARG_OF_PERICENTER":84.7512,"MEAN_ANOMALY":275.4357,"EPHEMERIS_TYPE":0,"CLASSIFICATION_TYPE":"U","NORAD_CAT_ID":63211,"ELEMENT_SET_NO":999,"REV_AT_EPOCH":5488,"BSTAR":0.00074857,"MEAN_MOTION_DOT":0.00023034,"MEAN_MOTION_DDOT":0}]
